<?xml version="1.0" encoding="UTF-8"?>
<kml xmlns="http://www.opengis.net/kml/2.2">
  <Document>
    <name>All Images Overlay</name>

    <GroundOverlay>
      <name>2025_06_19</name>
      <Icon>
        <href>jpgs/2025_06_19.jpg</href>
      </Icon>
      <LatLonBox>
        <north>36.198032</north>
        <south>36.149443</south>
        <east>28.018935</east>
        <west>27.957308</west>
        <rotation>0</rotation>
      </LatLonBox>
    </GroundOverlay>

    <GroundOverlay>
      <name>2025_06_22</name>
      <Icon>
        <href>jpgs/2025_06_22.jpg</href>
      </Icon>
      <LatLonBox>
        <north>36.198032</north>
        <south>36.149443</south>
        <east>28.018935</east>
        <west>27.957308</west>
        <rotation>0</rotation>
      </LatLonBox>
    </GroundOverlay>

    <GroundOverlay>
      <name>2025_06_27</name>
      <Icon>
        <href>jpgs/2025_06_27.jpg</href>
      </Icon>
      <LatLonBox>
        <north>36.198032</north>
        <south>36.149443</south>
        <east>28.018935</east>
        <west>27.957308</west>
        <rotation>0</rotation>
      </LatLonBox>
    </GroundOverlay>

    <GroundOverlay>
      <name>2025_06_29</name>
      <Icon>
        <href>jpgs/2025_06_29.jpg</href>
      </Icon>
      <LatLonBox>
        <north>36.198032</north>
        <south>36.149443</south>
        <east>28.018935</east>
        <west>27.957308</west>
        <rotation>0</rotation>
      </LatLonBox>
    </GroundOverlay>

    <GroundOverlay>
      <name>2025_07_02</name>
      <Icon>
        <href>jpgs/2025_07_02.jpg</href>
      </Icon>
      <LatLonBox>
        <north>36.198032</north>
        <south>36.149443</south>
        <east>28.018935</east>
        <west>27.957308</west>
        <rotation>0</rotation>
      </LatLonBox>
    </GroundOverlay>

    <GroundOverlay>
      <name>2025_07_07</name>
      <Icon>
        <href>jpgs/2025_07_07.jpg</href>
      </Icon>
      <LatLonBox>
        <north>36.198032</north>
        <south>36.149443</south>
        <east>28.018935</east>
        <west>27.957308</west>
        <rotation>0</rotation>
      </LatLonBox>
    </GroundOverlay>

    <GroundOverlay>
      <name>2025_07_09</name>
      <Icon>
        <href>jpgs/2025_07_09.jpg</href>
      </Icon>
      <LatLonBox>
        <north>36.198032</north>
        <south>36.149443</south>
        <east>28.018935</east>
        <west>27.957308</west>
        <rotation>0</rotation>
      </LatLonBox>
    </GroundOverlay>

    <GroundOverlay>
      <name>2025_07_12</name>
      <Icon>
        <href>jpgs/2025_07_12.jpg</href>
      </Icon>
      <LatLonBox>
        <north>36.198032</north>
        <south>36.149443</south>
        <east>28.018935</east>
        <west>27.957308</west>
        <rotation>0</rotation>
      </LatLonBox>
    </GroundOverlay>

    <GroundOverlay>
      <name>2025_07_17</name>
      <Icon>
        <href>jpgs/2025_07_17.jpg</href>
      </Icon>
      <LatLonBox>
        <north>36.198032</north>
        <south>36.149443</south>
        <east>28.018935</east>
        <west>27.957308</west>
        <rotation>0</rotation>
      </LatLonBox>
    </GroundOverlay>

    <GroundOverlay>
      <name>2025_07_19</name>
      <Icon>
        <href>jpgs/2025_07_19.jpg</href>
      </Icon>
      <LatLonBox>
        <north>36.198032</north>
        <south>36.149443</south>
        <east>28.018935</east>
        <west>27.957308</west>
        <rotation>0</rotation>
      </LatLonBox>
    </GroundOverlay>

    <GroundOverlay>
      <name>2025_07_22</name>
      <Icon>
        <href>jpgs/2025_07_22.jpg</href>
      </Icon>
      <LatLonBox>
        <north>36.198032</north>
        <south>36.149443</south>
        <east>28.018935</east>
        <west>27.957308</west>
        <rotation>0</rotation>
      </LatLonBox>
    </GroundOverlay>

    <GroundOverlay>
      <name>2025_07_27</name>
      <Icon>
        <href>jpgs/2025_07_27.jpg</href>
      </Icon>
      <LatLonBox>
        <north>36.198032</north>
        <south>36.149443</south>
        <east>28.018935</east>
        <west>27.957308</west>
        <rotation>0</rotation>
      </LatLonBox>
    </GroundOverlay>

    <GroundOverlay>
      <name>2025_07_29</name>
      <Icon>
        <href>jpgs/2025_07_29.jpg</href>
      </Icon>
      <LatLonBox>
        <north>36.198032</north>
        <south>36.149443</south>
        <east>28.018935</east>
        <west>27.957308</west>
        <rotation>0</rotation>
      </LatLonBox>
    </GroundOverlay>

    <GroundOverlay>
      <name>2025_08_01</name>
      <Icon>
        <href>jpgs/2025_08_01.jpg</href>
      </Icon>
      <LatLonBox>
        <north>36.198032</north>
        <south>36.149443</south>
        <east>28.018935</east>
        <west>27.957308</west>
        <rotation>0</rotation>
      </LatLonBox>
    </GroundOverlay>

    <GroundOverlay>
      <name>2025_08_06</name>
      <Icon>
        <href>jpgs/2025_08_06.jpg</href>
      </Icon>
      <LatLonBox>
        <north>36.198032</north>
        <south>36.149443</south>
        <east>28.018935</east>
        <west>27.957308</west>
        <rotation>0</rotation>
      </LatLonBox>
    </GroundOverlay>

    <GroundOverlay>
      <name>2025_08_08</name>
      <Icon>
        <href>jpgs/2025_08_08.jpg</href>
      </Icon>
      <LatLonBox>
        <north>36.198032</north>
        <south>36.149443</south>
        <east>28.018935</east>
        <west>27.957308</west>
        <rotation>0</rotation>
      </LatLonBox>
    </GroundOverlay>

    <GroundOverlay>
      <name>2025_08_11</name>
      <Icon>
        <href>jpgs/2025_08_11.jpg</href>
      </Icon>
      <LatLonBox>
        <north>36.198032</north>
        <south>36.149443</south>
        <east>28.018935</east>
        <west>27.957308</west>
        <rotation>0</rotation>
      </LatLonBox>
    </GroundOverlay>

    <GroundOverlay>
      <name>2025_08_16</name>
      <Icon>
        <href>jpgs/2025_08_16.jpg</href>
      </Icon>
      <LatLonBox>
        <north>36.198032</north>
        <south>36.149443</south>
        <east>28.018935</east>
        <west>27.957308</west>
        <rotation>0</rotation>
      </LatLonBox>
    </GroundOverlay>

    <GroundOverlay>
      <name>2025_08_18</name>
      <Icon>
        <href>jpgs/2025_08_18.jpg</href>
      </Icon>
      <LatLonBox>
        <north>36.198032</north>
        <south>36.149443</south>
        <east>28.018935</east>
        <west>27.957308</west>
        <rotation>0</rotation>
      </LatLonBox>
    </GroundOverlay>

    <GroundOverlay>
      <name>2025_08_21</name>
      <Icon>
        <href>jpgs/2025_08_21.jpg</href>
      </Icon>
      <LatLonBox>
        <north>36.198032</north>
        <south>36.149443</south>
        <east>28.018935</east>
        <west>27.957308</west>
        <rotation>0</rotation>
      </LatLonBox>
    </GroundOverlay>

    <GroundOverlay>
      <name>2025_08_26</name>
      <Icon>
        <href>jpgs/2025_08_26.jpg</href>
      </Icon>
      <LatLonBox>
        <north>36.198032</north>
        <south>36.149443</south>
        <east>28.018935</east>
        <west>27.957308</west>
        <rotation>0</rotation>
      </LatLonBox>
    </GroundOverlay>

    <GroundOverlay>
      <name>2025_08_28</name>
      <Icon>
        <href>jpgs/2025_08_28.jpg</href>
      </Icon>
      <LatLonBox>
        <north>36.198032</north>
        <south>36.149443</south>
        <east>28.018935</east>
        <west>27.957308</west>
        <rotation>0</rotation>
      </LatLonBox>
    </GroundOverlay>

    <GroundOverlay>
      <name>2025_08_31</name>
      <Icon>
        <href>jpgs/2025_08_31.jpg</href>
      </Icon>
      <LatLonBox>
        <north>36.198032</north>
        <south>36.149443</south>
        <east>28.018935</east>
        <west>27.957308</west>
        <rotation>0</rotation>
      </LatLonBox>
    </GroundOverlay>

    <GroundOverlay>
      <name>2025_09_05</name>
      <Icon>
        <href>jpgs/2025_09_05.jpg</href>
      </Icon>
      <LatLonBox>
        <north>36.198032</north>
        <south>36.149443</south>
        <east>28.018935</east>
        <west>27.957308</west>
        <rotation>0</rotation>
      </LatLonBox>
    </GroundOverlay>

    <GroundOverlay>
      <name>2025_09_07</name>
      <Icon>
        <href>jpgs/2025_09_07.jpg</href>
      </Icon>
      <LatLonBox>
        <north>36.198032</north>
        <south>36.149443</south>
        <east>28.018935</east>
        <west>27.957308</west>
        <rotation>0</rotation>
      </LatLonBox>
    </GroundOverlay>

    <GroundOverlay>
      <name>2025_09_10</name>
      <Icon>
        <href>jpgs/2025_09_10.jpg</href>
      </Icon>
      <LatLonBox>
        <north>36.198032</north>
        <south>36.149443</south>
        <east>28.018935</east>
        <west>27.957308</west>
        <rotation>0</rotation>
      </LatLonBox>
    </GroundOverlay>

    <GroundOverlay>
      <name>2025_09_15</name>
      <Icon>
        <href>jpgs/2025_09_15.jpg</href>
      </Icon>
      <LatLonBox>
        <north>36.198032</north>
        <south>36.149443</south>
        <east>28.018935</east>
        <west>27.957308</west>
        <rotation>0</rotation>
      </LatLonBox>
    </GroundOverlay>

    <GroundOverlay>
      <name>2025_09_17</name>
      <Icon>
        <href>jpgs/2025_09_17.jpg</href>
      </Icon>
      <LatLonBox>
        <north>36.198032</north>
        <south>36.149443</south>
        <east>28.018935</east>
        <west>27.957308</west>
        <rotation>0</rotation>
      </LatLonBox>
    </GroundOverlay>

  </Document>
</kml>
