<?xml version="1.0" encoding="UTF-8"?>
<kml xmlns="http://www.opengis.net/kml/2.2">
  <Document>
    <name>All Images Overlay</name>

    <GroundOverlay>
      <name>2008_02_06</name>
      <Icon>
        <href>jpgs/2008_02_06.jpg</href>
      </Icon>
      <LatLonBox>
        <north>36.198032</north>
        <south>36.149443</south>
        <east>28.018935</east>
        <west>27.957308</west>
        <rotation>0</rotation>
      </LatLonBox>
    </GroundOverlay>

    <GroundOverlay>
      <name>2010_09_17</name>
      <Icon>
        <href>jpgs/2010_09_17.jpg</href>
      </Icon>
      <LatLonBox>
        <north>36.198032</north>
        <south>36.149443</south>
        <east>28.018935</east>
        <west>27.957308</west>
        <rotation>0</rotation>
      </LatLonBox>
    </GroundOverlay>

    <GroundOverlay>
      <name>2015_06_19</name>
      <Icon>
        <href>jpgs/2015_06_19.jpg</href>
      </Icon>
      <LatLonBox>
        <north>36.198032</north>
        <south>36.149443</south>
        <east>28.018935</east>
        <west>27.957308</west>
        <rotation>0</rotation>
      </LatLonBox>
    </GroundOverlay>

    <GroundOverlay>
      <name>2015_07_30</name>
      <Icon>
        <href>jpgs/2015_07_30.jpg</href>
      </Icon>
      <LatLonBox>
        <north>36.198032</north>
        <south>36.149443</south>
        <east>28.018935</east>
        <west>27.957308</west>
        <rotation>0</rotation>
      </LatLonBox>
    </GroundOverlay>

    <GroundOverlay>
      <name>2015_08_29</name>
      <Icon>
        <href>jpgs/2015_08_29.jpg</href>
      </Icon>
      <LatLonBox>
        <north>36.198032</north>
        <south>36.149443</south>
        <east>28.018935</east>
        <west>27.957308</west>
        <rotation>0</rotation>
      </LatLonBox>
    </GroundOverlay>

    <GroundOverlay>
      <name>2015_11_17</name>
      <Icon>
        <href>jpgs/2015_11_17.jpg</href>
      </Icon>
      <LatLonBox>
        <north>36.198032</north>
        <south>36.149443</south>
        <east>28.018935</east>
        <west>27.957308</west>
        <rotation>0</rotation>
      </LatLonBox>
    </GroundOverlay>

    <GroundOverlay>
      <name>2015_12_07</name>
      <Icon>
        <href>jpgs/2015_12_07.jpg</href>
      </Icon>
      <LatLonBox>
        <north>36.198032</north>
        <south>36.149443</south>
        <east>28.018935</east>
        <west>27.957308</west>
        <rotation>0</rotation>
      </LatLonBox>
    </GroundOverlay>

    <GroundOverlay>
      <name>2015_12_27</name>
      <Icon>
        <href>jpgs/2015_12_27.jpg</href>
      </Icon>
      <LatLonBox>
        <north>36.198032</north>
        <south>36.149443</south>
        <east>28.018935</east>
        <west>27.957308</west>
        <rotation>0</rotation>
      </LatLonBox>
    </GroundOverlay>

    <GroundOverlay>
      <name>2016_04_05</name>
      <Icon>
        <href>jpgs/2016_04_05.jpg</href>
      </Icon>
      <LatLonBox>
        <north>36.198032</north>
        <south>36.149443</south>
        <east>28.018935</east>
        <west>27.957308</west>
        <rotation>0</rotation>
      </LatLonBox>
    </GroundOverlay>

    <GroundOverlay>
      <name>2016_04_15</name>
      <Icon>
        <href>jpgs/2016_04_15.jpg</href>
      </Icon>
      <LatLonBox>
        <north>36.198032</north>
        <south>36.149443</south>
        <east>28.018935</east>
        <west>27.957308</west>
        <rotation>0</rotation>
      </LatLonBox>
    </GroundOverlay>

    <GroundOverlay>
      <name>2016_06_03</name>
      <Icon>
        <href>jpgs/2016_06_03.jpg</href>
      </Icon>
      <LatLonBox>
        <north>36.198032</north>
        <south>36.149443</south>
        <east>28.018935</east>
        <west>27.957308</west>
        <rotation>0</rotation>
      </LatLonBox>
    </GroundOverlay>

    <GroundOverlay>
      <name>2016_06_13</name>
      <Icon>
        <href>jpgs/2016_06_13.jpg</href>
      </Icon>
      <LatLonBox>
        <north>36.198032</north>
        <south>36.149443</south>
        <east>28.018935</east>
        <west>27.957308</west>
        <rotation>0</rotation>
      </LatLonBox>
    </GroundOverlay>

    <GroundOverlay>
      <name>2016_06_23</name>
      <Icon>
        <href>jpgs/2016_06_23.jpg</href>
      </Icon>
      <LatLonBox>
        <north>36.198032</north>
        <south>36.149443</south>
        <east>28.018935</east>
        <west>27.957308</west>
        <rotation>0</rotation>
      </LatLonBox>
    </GroundOverlay>

    <GroundOverlay>
      <name>2016_06_24</name>
      <Icon>
        <href>jpgs/2016_06_24.jpg</href>
      </Icon>
      <LatLonBox>
        <north>36.198032</north>
        <south>36.149443</south>
        <east>28.018935</east>
        <west>27.957308</west>
        <rotation>0</rotation>
      </LatLonBox>
    </GroundOverlay>

    <GroundOverlay>
      <name>2016_07_14</name>
      <Icon>
        <href>jpgs/2016_07_14.jpg</href>
      </Icon>
      <LatLonBox>
        <north>36.198032</north>
        <south>36.149443</south>
        <east>28.018935</east>
        <west>27.957308</west>
        <rotation>0</rotation>
      </LatLonBox>
    </GroundOverlay>

    <GroundOverlay>
      <name>2016_07_24</name>
      <Icon>
        <href>jpgs/2016_07_24.jpg</href>
      </Icon>
      <LatLonBox>
        <north>36.198032</north>
        <south>36.149443</south>
        <east>28.018935</east>
        <west>27.957308</west>
        <rotation>0</rotation>
      </LatLonBox>
    </GroundOverlay>

    <GroundOverlay>
      <name>2016_09_02</name>
      <Icon>
        <href>jpgs/2016_09_02.jpg</href>
      </Icon>
      <LatLonBox>
        <north>36.198032</north>
        <south>36.149443</south>
        <east>28.018935</east>
        <west>27.957308</west>
        <rotation>0</rotation>
      </LatLonBox>
    </GroundOverlay>

    <GroundOverlay>
      <name>2016_10_02</name>
      <Icon>
        <href>jpgs/2016_10_02.jpg</href>
      </Icon>
      <LatLonBox>
        <north>36.198032</north>
        <south>36.149443</south>
        <east>28.018935</east>
        <west>27.957308</west>
        <rotation>0</rotation>
      </LatLonBox>
    </GroundOverlay>

    <GroundOverlay>
      <name>2016_10_22</name>
      <Icon>
        <href>jpgs/2016_10_22.jpg</href>
      </Icon>
      <LatLonBox>
        <north>36.198032</north>
        <south>36.149443</south>
        <east>28.018935</east>
        <west>27.957308</west>
        <rotation>0</rotation>
      </LatLonBox>
    </GroundOverlay>

    <GroundOverlay>
      <name>2016_11_01</name>
      <Icon>
        <href>jpgs/2016_11_01.jpg</href>
      </Icon>
      <LatLonBox>
        <north>36.198032</north>
        <south>36.149443</south>
        <east>28.018935</east>
        <west>27.957308</west>
        <rotation>0</rotation>
      </LatLonBox>
    </GroundOverlay>

    <GroundOverlay>
      <name>2016_11_21</name>
      <Icon>
        <href>jpgs/2016_11_21.jpg</href>
      </Icon>
      <LatLonBox>
        <north>36.198032</north>
        <south>36.149443</south>
        <east>28.018935</east>
        <west>27.957308</west>
        <rotation>0</rotation>
      </LatLonBox>
    </GroundOverlay>

    <GroundOverlay>
      <name>2016_12_11</name>
      <Icon>
        <href>jpgs/2016_12_11.jpg</href>
      </Icon>
      <LatLonBox>
        <north>36.198032</north>
        <south>36.149443</south>
        <east>28.018935</east>
        <west>27.957308</west>
        <rotation>0</rotation>
      </LatLonBox>
    </GroundOverlay>

    <GroundOverlay>
      <name>2017_03_01</name>
      <Icon>
        <href>jpgs/2017_03_01.jpg</href>
      </Icon>
      <LatLonBox>
        <north>36.198032</north>
        <south>36.149443</south>
        <east>28.018935</east>
        <west>27.957308</west>
        <rotation>0</rotation>
      </LatLonBox>
    </GroundOverlay>

    <GroundOverlay>
      <name>2017_03_21</name>
      <Icon>
        <href>jpgs/2017_03_21.jpg</href>
      </Icon>
      <LatLonBox>
        <north>36.198032</north>
        <south>36.149443</south>
        <east>28.018935</east>
        <west>27.957308</west>
        <rotation>0</rotation>
      </LatLonBox>
    </GroundOverlay>

    <GroundOverlay>
      <name>2017_03_26</name>
      <Icon>
        <href>jpgs/2017_03_26.jpg</href>
      </Icon>
      <LatLonBox>
        <north>36.198032</north>
        <south>36.149443</south>
        <east>28.018935</east>
        <west>27.957308</west>
        <rotation>0</rotation>
      </LatLonBox>
    </GroundOverlay>

    <GroundOverlay>
      <name>2017_04_15</name>
      <Icon>
        <href>jpgs/2017_04_15.jpg</href>
      </Icon>
      <LatLonBox>
        <north>36.198032</north>
        <south>36.149443</south>
        <east>28.018935</east>
        <west>27.957308</west>
        <rotation>0</rotation>
      </LatLonBox>
    </GroundOverlay>

    <GroundOverlay>
      <name>2017_04_25</name>
      <Icon>
        <href>jpgs/2017_04_25.jpg</href>
      </Icon>
      <LatLonBox>
        <north>36.198032</north>
        <south>36.149443</south>
        <east>28.018935</east>
        <west>27.957308</west>
        <rotation>0</rotation>
      </LatLonBox>
    </GroundOverlay>

    <GroundOverlay>
      <name>2017_05_05</name>
      <Icon>
        <href>jpgs/2017_05_05.jpg</href>
      </Icon>
      <LatLonBox>
        <north>36.198032</north>
        <south>36.149443</south>
        <east>28.018935</east>
        <west>27.957308</west>
        <rotation>0</rotation>
      </LatLonBox>
    </GroundOverlay>

    <GroundOverlay>
      <name>2017_05_10</name>
      <Icon>
        <href>jpgs/2017_05_10.jpg</href>
      </Icon>
      <LatLonBox>
        <north>36.198032</north>
        <south>36.149443</south>
        <east>28.018935</east>
        <west>27.957308</west>
        <rotation>0</rotation>
      </LatLonBox>
    </GroundOverlay>

    <GroundOverlay>
      <name>2017_05_15</name>
      <Icon>
        <href>jpgs/2017_05_15.jpg</href>
      </Icon>
      <LatLonBox>
        <north>36.198032</north>
        <south>36.149443</south>
        <east>28.018935</east>
        <west>27.957308</west>
        <rotation>0</rotation>
      </LatLonBox>
    </GroundOverlay>

    <GroundOverlay>
      <name>2017_05_20</name>
      <Icon>
        <href>jpgs/2017_05_20.jpg</href>
      </Icon>
      <LatLonBox>
        <north>36.198032</north>
        <south>36.149443</south>
        <east>28.018935</east>
        <west>27.957308</west>
        <rotation>0</rotation>
      </LatLonBox>
    </GroundOverlay>

    <GroundOverlay>
      <name>2017_06_03</name>
      <Icon>
        <href>jpgs/2017_06_03.jpg</href>
      </Icon>
      <LatLonBox>
        <north>36.198032</north>
        <south>36.149443</south>
        <east>28.018935</east>
        <west>27.957308</west>
        <rotation>0</rotation>
      </LatLonBox>
    </GroundOverlay>

    <GroundOverlay>
      <name>2017_06_08</name>
      <Icon>
        <href>jpgs/2017_06_08.jpg</href>
      </Icon>
      <LatLonBox>
        <north>36.198032</north>
        <south>36.149443</south>
        <east>28.018935</east>
        <west>27.957308</west>
        <rotation>0</rotation>
      </LatLonBox>
    </GroundOverlay>

    <GroundOverlay>
      <name>2017_06_09</name>
      <Icon>
        <href>jpgs/2017_06_09.jpg</href>
      </Icon>
      <LatLonBox>
        <north>36.198032</north>
        <south>36.149443</south>
        <east>28.018935</east>
        <west>27.957308</west>
        <rotation>0</rotation>
      </LatLonBox>
    </GroundOverlay>

    <GroundOverlay>
      <name>2017_06_14</name>
      <Icon>
        <href>jpgs/2017_06_14.jpg</href>
      </Icon>
      <LatLonBox>
        <north>36.198032</north>
        <south>36.149443</south>
        <east>28.018935</east>
        <west>27.957308</west>
        <rotation>0</rotation>
      </LatLonBox>
    </GroundOverlay>

    <GroundOverlay>
      <name>2017_06_19</name>
      <Icon>
        <href>jpgs/2017_06_19.jpg</href>
      </Icon>
      <LatLonBox>
        <north>36.198032</north>
        <south>36.149443</south>
        <east>28.018935</east>
        <west>27.957308</west>
        <rotation>0</rotation>
      </LatLonBox>
    </GroundOverlay>

    <GroundOverlay>
      <name>2017_06_24</name>
      <Icon>
        <href>jpgs/2017_06_24.jpg</href>
      </Icon>
      <LatLonBox>
        <north>36.198032</north>
        <south>36.149443</south>
        <east>28.018935</east>
        <west>27.957308</west>
        <rotation>0</rotation>
      </LatLonBox>
    </GroundOverlay>

    <GroundOverlay>
      <name>2017_06_28</name>
      <Icon>
        <href>jpgs/2017_06_28.jpg</href>
      </Icon>
      <LatLonBox>
        <north>36.198032</north>
        <south>36.149443</south>
        <east>28.018935</east>
        <west>27.957308</west>
        <rotation>0</rotation>
      </LatLonBox>
    </GroundOverlay>

    <GroundOverlay>
      <name>2017_06_29</name>
      <Icon>
        <href>jpgs/2017_06_29.jpg</href>
      </Icon>
      <LatLonBox>
        <north>36.198032</north>
        <south>36.149443</south>
        <east>28.018935</east>
        <west>27.957308</west>
        <rotation>0</rotation>
      </LatLonBox>
    </GroundOverlay>

    <GroundOverlay>
      <name>2017_07_04</name>
      <Icon>
        <href>jpgs/2017_07_04.jpg</href>
      </Icon>
      <LatLonBox>
        <north>36.198032</north>
        <south>36.149443</south>
        <east>28.018935</east>
        <west>27.957308</west>
        <rotation>0</rotation>
      </LatLonBox>
    </GroundOverlay>

    <GroundOverlay>
      <name>2017_07_14</name>
      <Icon>
        <href>jpgs/2017_07_14.jpg</href>
      </Icon>
      <LatLonBox>
        <north>36.198032</north>
        <south>36.149443</south>
        <east>28.018935</east>
        <west>27.957308</west>
        <rotation>0</rotation>
      </LatLonBox>
    </GroundOverlay>

    <GroundOverlay>
      <name>2017_07_19</name>
      <Icon>
        <href>jpgs/2017_07_19.jpg</href>
      </Icon>
      <LatLonBox>
        <north>36.198032</north>
        <south>36.149443</south>
        <east>28.018935</east>
        <west>27.957308</west>
        <rotation>0</rotation>
      </LatLonBox>
    </GroundOverlay>

    <GroundOverlay>
      <name>2017_07_24</name>
      <Icon>
        <href>jpgs/2017_07_24.jpg</href>
      </Icon>
      <LatLonBox>
        <north>36.198032</north>
        <south>36.149443</south>
        <east>28.018935</east>
        <west>27.957308</west>
        <rotation>0</rotation>
      </LatLonBox>
    </GroundOverlay>

    <GroundOverlay>
      <name>2017_07_29</name>
      <Icon>
        <href>jpgs/2017_07_29.jpg</href>
      </Icon>
      <LatLonBox>
        <north>36.198032</north>
        <south>36.149443</south>
        <east>28.018935</east>
        <west>27.957308</west>
        <rotation>0</rotation>
      </LatLonBox>
    </GroundOverlay>

    <GroundOverlay>
      <name>2017_08_13</name>
      <Icon>
        <href>jpgs/2017_08_13.jpg</href>
      </Icon>
      <LatLonBox>
        <north>36.198032</north>
        <south>36.149443</south>
        <east>28.018935</east>
        <west>27.957308</west>
        <rotation>0</rotation>
      </LatLonBox>
    </GroundOverlay>

    <GroundOverlay>
      <name>2017_08_23</name>
      <Icon>
        <href>jpgs/2017_08_23.jpg</href>
      </Icon>
      <LatLonBox>
        <north>36.198032</north>
        <south>36.149443</south>
        <east>28.018935</east>
        <west>27.957308</west>
        <rotation>0</rotation>
      </LatLonBox>
    </GroundOverlay>

    <GroundOverlay>
      <name>2017_09_02</name>
      <Icon>
        <href>jpgs/2017_09_02.jpg</href>
      </Icon>
      <LatLonBox>
        <north>36.198032</north>
        <south>36.149443</south>
        <east>28.018935</east>
        <west>27.957308</west>
        <rotation>0</rotation>
      </LatLonBox>
    </GroundOverlay>

    <GroundOverlay>
      <name>2017_09_07</name>
      <Icon>
        <href>jpgs/2017_09_07.jpg</href>
      </Icon>
      <LatLonBox>
        <north>36.198032</north>
        <south>36.149443</south>
        <east>28.018935</east>
        <west>27.957308</west>
        <rotation>0</rotation>
      </LatLonBox>
    </GroundOverlay>

    <GroundOverlay>
      <name>2017_09_12</name>
      <Icon>
        <href>jpgs/2017_09_12.jpg</href>
      </Icon>
      <LatLonBox>
        <north>36.198032</north>
        <south>36.149443</south>
        <east>28.018935</east>
        <west>27.957308</west>
        <rotation>0</rotation>
      </LatLonBox>
    </GroundOverlay>

    <GroundOverlay>
      <name>2017_09_17</name>
      <Icon>
        <href>jpgs/2017_09_17.jpg</href>
      </Icon>
      <LatLonBox>
        <north>36.198032</north>
        <south>36.149443</south>
        <east>28.018935</east>
        <west>27.957308</west>
        <rotation>0</rotation>
      </LatLonBox>
    </GroundOverlay>

    <GroundOverlay>
      <name>2017_09_27</name>
      <Icon>
        <href>jpgs/2017_09_27.jpg</href>
      </Icon>
      <LatLonBox>
        <north>36.198032</north>
        <south>36.149443</south>
        <east>28.018935</east>
        <west>27.957308</west>
        <rotation>0</rotation>
      </LatLonBox>
    </GroundOverlay>

    <GroundOverlay>
      <name>2017_10_02</name>
      <Icon>
        <href>jpgs/2017_10_02.jpg</href>
      </Icon>
      <LatLonBox>
        <north>36.198032</north>
        <south>36.149443</south>
        <east>28.018935</east>
        <west>27.957308</west>
        <rotation>0</rotation>
      </LatLonBox>
    </GroundOverlay>

    <GroundOverlay>
      <name>2017_10_12</name>
      <Icon>
        <href>jpgs/2017_10_12.jpg</href>
      </Icon>
      <LatLonBox>
        <north>36.198032</north>
        <south>36.149443</south>
        <east>28.018935</east>
        <west>27.957308</west>
        <rotation>0</rotation>
      </LatLonBox>
    </GroundOverlay>

    <GroundOverlay>
      <name>2017_10_17</name>
      <Icon>
        <href>jpgs/2017_10_17.jpg</href>
      </Icon>
      <LatLonBox>
        <north>36.198032</north>
        <south>36.149443</south>
        <east>28.018935</east>
        <west>27.957308</west>
        <rotation>0</rotation>
      </LatLonBox>
    </GroundOverlay>

    <GroundOverlay>
      <name>2017_10_22</name>
      <Icon>
        <href>jpgs/2017_10_22.jpg</href>
      </Icon>
      <LatLonBox>
        <north>36.198032</north>
        <south>36.149443</south>
        <east>28.018935</east>
        <west>27.957308</west>
        <rotation>0</rotation>
      </LatLonBox>
    </GroundOverlay>

    <GroundOverlay>
      <name>2017_11_06</name>
      <Icon>
        <href>jpgs/2017_11_06.jpg</href>
      </Icon>
      <LatLonBox>
        <north>36.198032</north>
        <south>36.149443</south>
        <east>28.018935</east>
        <west>27.957308</west>
        <rotation>0</rotation>
      </LatLonBox>
    </GroundOverlay>

    <GroundOverlay>
      <name>2017_11_21</name>
      <Icon>
        <href>jpgs/2017_11_21.jpg</href>
      </Icon>
      <LatLonBox>
        <north>36.198032</north>
        <south>36.149443</south>
        <east>28.018935</east>
        <west>27.957308</west>
        <rotation>0</rotation>
      </LatLonBox>
    </GroundOverlay>

    <GroundOverlay>
      <name>2018_01_15</name>
      <Icon>
        <href>jpgs/2018_01_15.jpg</href>
      </Icon>
      <LatLonBox>
        <north>36.198032</north>
        <south>36.149443</south>
        <east>28.018935</east>
        <west>27.957308</west>
        <rotation>0</rotation>
      </LatLonBox>
    </GroundOverlay>

    <GroundOverlay>
      <name>2018_01_30</name>
      <Icon>
        <href>jpgs/2018_01_30.jpg</href>
      </Icon>
      <LatLonBox>
        <north>36.198032</north>
        <south>36.149443</south>
        <east>28.018935</east>
        <west>27.957308</west>
        <rotation>0</rotation>
      </LatLonBox>
    </GroundOverlay>

    <GroundOverlay>
      <name>2018_03_11</name>
      <Icon>
        <href>jpgs/2018_03_11.jpg</href>
      </Icon>
      <LatLonBox>
        <north>36.198032</north>
        <south>36.149443</south>
        <east>28.018935</east>
        <west>27.957308</west>
        <rotation>0</rotation>
      </LatLonBox>
    </GroundOverlay>

    <GroundOverlay>
      <name>2018_03_31</name>
      <Icon>
        <href>jpgs/2018_03_31.jpg</href>
      </Icon>
      <LatLonBox>
        <north>36.198032</north>
        <south>36.149443</south>
        <east>28.018935</east>
        <west>27.957308</west>
        <rotation>0</rotation>
      </LatLonBox>
    </GroundOverlay>

    <GroundOverlay>
      <name>2018_04_10</name>
      <Icon>
        <href>jpgs/2018_04_10.jpg</href>
      </Icon>
      <LatLonBox>
        <north>36.198032</north>
        <south>36.149443</south>
        <east>28.018935</east>
        <west>27.957308</west>
        <rotation>0</rotation>
      </LatLonBox>
    </GroundOverlay>

    <GroundOverlay>
      <name>2018_04_20</name>
      <Icon>
        <href>jpgs/2018_04_20.jpg</href>
      </Icon>
      <LatLonBox>
        <north>36.198032</north>
        <south>36.149443</south>
        <east>28.018935</east>
        <west>27.957308</west>
        <rotation>0</rotation>
      </LatLonBox>
    </GroundOverlay>

    <GroundOverlay>
      <name>2018_04_30</name>
      <Icon>
        <href>jpgs/2018_04_30.jpg</href>
      </Icon>
      <LatLonBox>
        <north>36.198032</north>
        <south>36.149443</south>
        <east>28.018935</east>
        <west>27.957308</west>
        <rotation>0</rotation>
      </LatLonBox>
    </GroundOverlay>

    <GroundOverlay>
      <name>2018_06_04</name>
      <Icon>
        <href>jpgs/2018_06_04.jpg</href>
      </Icon>
      <LatLonBox>
        <north>36.198032</north>
        <south>36.149443</south>
        <east>28.018935</east>
        <west>27.957308</west>
        <rotation>0</rotation>
      </LatLonBox>
    </GroundOverlay>

    <GroundOverlay>
      <name>2018_06_08</name>
      <Icon>
        <href>jpgs/2018_06_08.jpg</href>
      </Icon>
      <LatLonBox>
        <north>36.198032</north>
        <south>36.149443</south>
        <east>28.018935</east>
        <west>27.957308</west>
        <rotation>0</rotation>
      </LatLonBox>
    </GroundOverlay>

    <GroundOverlay>
      <name>2018_06_09</name>
      <Icon>
        <href>jpgs/2018_06_09.jpg</href>
      </Icon>
      <LatLonBox>
        <north>36.198032</north>
        <south>36.149443</south>
        <east>28.018935</east>
        <west>27.957308</west>
        <rotation>0</rotation>
      </LatLonBox>
    </GroundOverlay>

    <GroundOverlay>
      <name>2018_06_13</name>
      <Icon>
        <href>jpgs/2018_06_13.jpg</href>
      </Icon>
      <LatLonBox>
        <north>36.198032</north>
        <south>36.149443</south>
        <east>28.018935</east>
        <west>27.957308</west>
        <rotation>0</rotation>
      </LatLonBox>
    </GroundOverlay>

    <GroundOverlay>
      <name>2018_06_14</name>
      <Icon>
        <href>jpgs/2018_06_14.jpg</href>
      </Icon>
      <LatLonBox>
        <north>36.198032</north>
        <south>36.149443</south>
        <east>28.018935</east>
        <west>27.957308</west>
        <rotation>0</rotation>
      </LatLonBox>
    </GroundOverlay>

    <GroundOverlay>
      <name>2018_07_04</name>
      <Icon>
        <href>jpgs/2018_07_04.jpg</href>
      </Icon>
      <LatLonBox>
        <north>36.198032</north>
        <south>36.149443</south>
        <east>28.018935</east>
        <west>27.957308</west>
        <rotation>0</rotation>
      </LatLonBox>
    </GroundOverlay>

    <GroundOverlay>
      <name>2018_07_09</name>
      <Icon>
        <href>jpgs/2018_07_09.jpg</href>
      </Icon>
      <LatLonBox>
        <north>36.198032</north>
        <south>36.149443</south>
        <east>28.018935</east>
        <west>27.957308</west>
        <rotation>0</rotation>
      </LatLonBox>
    </GroundOverlay>

    <GroundOverlay>
      <name>2018_07_19</name>
      <Icon>
        <href>jpgs/2018_07_19.jpg</href>
      </Icon>
      <LatLonBox>
        <north>36.198032</north>
        <south>36.149443</south>
        <east>28.018935</east>
        <west>27.957308</west>
        <rotation>0</rotation>
      </LatLonBox>
    </GroundOverlay>

    <GroundOverlay>
      <name>2018_08_18</name>
      <Icon>
        <href>jpgs/2018_08_18.jpg</href>
      </Icon>
      <LatLonBox>
        <north>36.198032</north>
        <south>36.149443</south>
        <east>28.018935</east>
        <west>27.957308</west>
        <rotation>0</rotation>
      </LatLonBox>
    </GroundOverlay>

    <GroundOverlay>
      <name>2018_08_23</name>
      <Icon>
        <href>jpgs/2018_08_23.jpg</href>
      </Icon>
      <LatLonBox>
        <north>36.198032</north>
        <south>36.149443</south>
        <east>28.018935</east>
        <west>27.957308</west>
        <rotation>0</rotation>
      </LatLonBox>
    </GroundOverlay>

    <GroundOverlay>
      <name>2018_09_02</name>
      <Icon>
        <href>jpgs/2018_09_02.jpg</href>
      </Icon>
      <LatLonBox>
        <north>36.198032</north>
        <south>36.149443</south>
        <east>28.018935</east>
        <west>27.957308</west>
        <rotation>0</rotation>
      </LatLonBox>
    </GroundOverlay>

    <GroundOverlay>
      <name>2018_09_07</name>
      <Icon>
        <href>jpgs/2018_09_07.jpg</href>
      </Icon>
      <LatLonBox>
        <north>36.198032</north>
        <south>36.149443</south>
        <east>28.018935</east>
        <west>27.957308</west>
        <rotation>0</rotation>
      </LatLonBox>
    </GroundOverlay>

    <GroundOverlay>
      <name>2018_09_22</name>
      <Icon>
        <href>jpgs/2018_09_22.jpg</href>
      </Icon>
      <LatLonBox>
        <north>36.198032</north>
        <south>36.149443</south>
        <east>28.018935</east>
        <west>27.957308</west>
        <rotation>0</rotation>
      </LatLonBox>
    </GroundOverlay>

    <GroundOverlay>
      <name>2018_11_06</name>
      <Icon>
        <href>jpgs/2018_11_06.jpg</href>
      </Icon>
      <LatLonBox>
        <north>36.198032</north>
        <south>36.149443</south>
        <east>28.018935</east>
        <west>27.957308</west>
        <rotation>0</rotation>
      </LatLonBox>
    </GroundOverlay>

    <GroundOverlay>
      <name>2018_11_11</name>
      <Icon>
        <href>jpgs/2018_11_11.jpg</href>
      </Icon>
      <LatLonBox>
        <north>36.198032</north>
        <south>36.149443</south>
        <east>28.018935</east>
        <west>27.957308</west>
        <rotation>0</rotation>
      </LatLonBox>
    </GroundOverlay>

    <GroundOverlay>
      <name>2019_06_04</name>
      <Icon>
        <href>jpgs/2019_06_04.jpg</href>
      </Icon>
      <LatLonBox>
        <north>36.198032</north>
        <south>36.149443</south>
        <east>28.018935</east>
        <west>27.957308</west>
        <rotation>0</rotation>
      </LatLonBox>
    </GroundOverlay>

    <GroundOverlay>
      <name>2019_06_14</name>
      <Icon>
        <href>jpgs/2019_06_14.jpg</href>
      </Icon>
      <LatLonBox>
        <north>36.198032</north>
        <south>36.149443</south>
        <east>28.018935</east>
        <west>27.957308</west>
        <rotation>0</rotation>
      </LatLonBox>
    </GroundOverlay>

    <GroundOverlay>
      <name>2019_06_18</name>
      <Icon>
        <href>jpgs/2019_06_18.jpg</href>
      </Icon>
      <LatLonBox>
        <north>36.198032</north>
        <south>36.149443</south>
        <east>28.018935</east>
        <west>27.957308</west>
        <rotation>0</rotation>
      </LatLonBox>
    </GroundOverlay>

    <GroundOverlay>
      <name>2019_06_24</name>
      <Icon>
        <href>jpgs/2019_06_24.jpg</href>
      </Icon>
      <LatLonBox>
        <north>36.198032</north>
        <south>36.149443</south>
        <east>28.018935</east>
        <west>27.957308</west>
        <rotation>0</rotation>
      </LatLonBox>
    </GroundOverlay>

    <GroundOverlay>
      <name>2019_06_28</name>
      <Icon>
        <href>jpgs/2019_06_28.jpg</href>
      </Icon>
      <LatLonBox>
        <north>36.198032</north>
        <south>36.149443</south>
        <east>28.018935</east>
        <west>27.957308</west>
        <rotation>0</rotation>
      </LatLonBox>
    </GroundOverlay>

    <GroundOverlay>
      <name>2019_06_29</name>
      <Icon>
        <href>jpgs/2019_06_29.jpg</href>
      </Icon>
      <LatLonBox>
        <north>36.198032</north>
        <south>36.149443</south>
        <east>28.018935</east>
        <west>27.957308</west>
        <rotation>0</rotation>
      </LatLonBox>
    </GroundOverlay>

    <GroundOverlay>
      <name>2019_07_04</name>
      <Icon>
        <href>jpgs/2019_07_04.jpg</href>
      </Icon>
      <LatLonBox>
        <north>36.198032</north>
        <south>36.149443</south>
        <east>28.018935</east>
        <west>27.957308</west>
        <rotation>0</rotation>
      </LatLonBox>
    </GroundOverlay>

    <GroundOverlay>
      <name>2019_07_09</name>
      <Icon>
        <href>jpgs/2019_07_09.jpg</href>
      </Icon>
      <LatLonBox>
        <north>36.198032</north>
        <south>36.149443</south>
        <east>28.018935</east>
        <west>27.957308</west>
        <rotation>0</rotation>
      </LatLonBox>
    </GroundOverlay>

    <GroundOverlay>
      <name>2019_08_05</name>
      <Icon>
        <href>jpgs/2019_08_05.jpg</href>
      </Icon>
      <LatLonBox>
        <north>36.198032</north>
        <south>36.149443</south>
        <east>28.018935</east>
        <west>27.957308</west>
        <rotation>0</rotation>
      </LatLonBox>
    </GroundOverlay>

    <GroundOverlay>
      <name>2019_08_23</name>
      <Icon>
        <href>jpgs/2019_08_23.jpg</href>
      </Icon>
      <LatLonBox>
        <north>36.198032</north>
        <south>36.149443</south>
        <east>28.018935</east>
        <west>27.957308</west>
        <rotation>0</rotation>
      </LatLonBox>
    </GroundOverlay>

    <GroundOverlay>
      <name>2019_09_02</name>
      <Icon>
        <href>jpgs/2019_09_02.jpg</href>
      </Icon>
      <LatLonBox>
        <north>36.198032</north>
        <south>36.149443</south>
        <east>28.018935</east>
        <west>27.957308</west>
        <rotation>0</rotation>
      </LatLonBox>
    </GroundOverlay>

    <GroundOverlay>
      <name>2019_09_07</name>
      <Icon>
        <href>jpgs/2019_09_07.jpg</href>
      </Icon>
      <LatLonBox>
        <north>36.198032</north>
        <south>36.149443</south>
        <east>28.018935</east>
        <west>27.957308</west>
        <rotation>0</rotation>
      </LatLonBox>
    </GroundOverlay>

    <GroundOverlay>
      <name>2019_09_12</name>
      <Icon>
        <href>jpgs/2019_09_12.jpg</href>
      </Icon>
      <LatLonBox>
        <north>36.198032</north>
        <south>36.149443</south>
        <east>28.018935</east>
        <west>27.957308</west>
        <rotation>0</rotation>
      </LatLonBox>
    </GroundOverlay>

    <GroundOverlay>
      <name>2019_12_06</name>
      <Icon>
        <href>jpgs/2019_12_06.jpg</href>
      </Icon>
      <LatLonBox>
        <north>36.198032</north>
        <south>36.149443</south>
        <east>28.018935</east>
        <west>27.957308</west>
        <rotation>0</rotation>
      </LatLonBox>
    </GroundOverlay>

    <GroundOverlay>
      <name>2019_12_16</name>
      <Icon>
        <href>jpgs/2019_12_16.jpg</href>
      </Icon>
      <LatLonBox>
        <north>36.198032</north>
        <south>36.149443</south>
        <east>28.018935</east>
        <west>27.957308</west>
        <rotation>0</rotation>
      </LatLonBox>
    </GroundOverlay>

    <GroundOverlay>
      <name>2020_01_10</name>
      <Icon>
        <href>jpgs/2020_01_10.jpg</href>
      </Icon>
      <LatLonBox>
        <north>36.198032</north>
        <south>36.149443</south>
        <east>28.018935</east>
        <west>27.957308</west>
        <rotation>0</rotation>
      </LatLonBox>
    </GroundOverlay>

    <GroundOverlay>
      <name>2020_01_20</name>
      <Icon>
        <href>jpgs/2020_01_20.jpg</href>
      </Icon>
      <LatLonBox>
        <north>36.198032</north>
        <south>36.149443</south>
        <east>28.018935</east>
        <west>27.957308</west>
        <rotation>0</rotation>
      </LatLonBox>
    </GroundOverlay>

    <GroundOverlay>
      <name>2020_01_25</name>
      <Icon>
        <href>jpgs/2020_01_25.jpg</href>
      </Icon>
      <LatLonBox>
        <north>36.198032</north>
        <south>36.149443</south>
        <east>28.018935</east>
        <west>27.957308</west>
        <rotation>0</rotation>
      </LatLonBox>
    </GroundOverlay>

    <GroundOverlay>
      <name>2020_02_09</name>
      <Icon>
        <href>jpgs/2020_02_09.jpg</href>
      </Icon>
      <LatLonBox>
        <north>36.198032</north>
        <south>36.149443</south>
        <east>28.018935</east>
        <west>27.957308</west>
        <rotation>0</rotation>
      </LatLonBox>
    </GroundOverlay>

    <GroundOverlay>
      <name>2020_03_20</name>
      <Icon>
        <href>jpgs/2020_03_20.jpg</href>
      </Icon>
      <LatLonBox>
        <north>36.198032</north>
        <south>36.149443</south>
        <east>28.018935</east>
        <west>27.957308</west>
        <rotation>0</rotation>
      </LatLonBox>
    </GroundOverlay>

    <GroundOverlay>
      <name>2020_03_25</name>
      <Icon>
        <href>jpgs/2020_03_25.jpg</href>
      </Icon>
      <LatLonBox>
        <north>36.198032</north>
        <south>36.149443</south>
        <east>28.018935</east>
        <west>27.957308</west>
        <rotation>0</rotation>
      </LatLonBox>
    </GroundOverlay>

    <GroundOverlay>
      <name>2020_04_14</name>
      <Icon>
        <href>jpgs/2020_04_14.jpg</href>
      </Icon>
      <LatLonBox>
        <north>36.198032</north>
        <south>36.149443</south>
        <east>28.018935</east>
        <west>27.957308</west>
        <rotation>0</rotation>
      </LatLonBox>
    </GroundOverlay>

    <GroundOverlay>
      <name>2020_04_29</name>
      <Icon>
        <href>jpgs/2020_04_29.jpg</href>
      </Icon>
      <LatLonBox>
        <north>36.198032</north>
        <south>36.149443</south>
        <east>28.018935</east>
        <west>27.957308</west>
        <rotation>0</rotation>
      </LatLonBox>
    </GroundOverlay>

    <GroundOverlay>
      <name>2020_05_09</name>
      <Icon>
        <href>jpgs/2020_05_09.jpg</href>
      </Icon>
      <LatLonBox>
        <north>36.198032</north>
        <south>36.149443</south>
        <east>28.018935</east>
        <west>27.957308</west>
        <rotation>0</rotation>
      </LatLonBox>
    </GroundOverlay>

    <GroundOverlay>
      <name>2020_05_14</name>
      <Icon>
        <href>jpgs/2020_05_14.jpg</href>
      </Icon>
      <LatLonBox>
        <north>36.198032</north>
        <south>36.149443</south>
        <east>28.018935</east>
        <west>27.957308</west>
        <rotation>0</rotation>
      </LatLonBox>
    </GroundOverlay>

    <GroundOverlay>
      <name>2020_05_24</name>
      <Icon>
        <href>jpgs/2020_05_24.jpg</href>
      </Icon>
      <LatLonBox>
        <north>36.198032</north>
        <south>36.149443</south>
        <east>28.018935</east>
        <west>27.957308</west>
        <rotation>0</rotation>
      </LatLonBox>
    </GroundOverlay>

    <GroundOverlay>
      <name>2020_06_07</name>
      <Icon>
        <href>jpgs/2020_06_07.jpg</href>
      </Icon>
      <LatLonBox>
        <north>36.198032</north>
        <south>36.149443</south>
        <east>28.018935</east>
        <west>27.957308</west>
        <rotation>0</rotation>
      </LatLonBox>
    </GroundOverlay>

    <GroundOverlay>
      <name>2020_06_08</name>
      <Icon>
        <href>jpgs/2020_06_08.jpg</href>
      </Icon>
      <LatLonBox>
        <north>36.198032</north>
        <south>36.149443</south>
        <east>28.018935</east>
        <west>27.957308</west>
        <rotation>0</rotation>
      </LatLonBox>
    </GroundOverlay>

    <GroundOverlay>
      <name>2020_06_18</name>
      <Icon>
        <href>jpgs/2020_06_18.jpg</href>
      </Icon>
      <LatLonBox>
        <north>36.198032</north>
        <south>36.149443</south>
        <east>28.018935</east>
        <west>27.957308</west>
        <rotation>0</rotation>
      </LatLonBox>
    </GroundOverlay>

    <GroundOverlay>
      <name>2020_06_28</name>
      <Icon>
        <href>jpgs/2020_06_28.jpg</href>
      </Icon>
      <LatLonBox>
        <north>36.198032</north>
        <south>36.149443</south>
        <east>28.018935</east>
        <west>27.957308</west>
        <rotation>0</rotation>
      </LatLonBox>
    </GroundOverlay>

    <GroundOverlay>
      <name>2020_07_03</name>
      <Icon>
        <href>jpgs/2020_07_03.jpg</href>
      </Icon>
      <LatLonBox>
        <north>36.198032</north>
        <south>36.149443</south>
        <east>28.018935</east>
        <west>27.957308</west>
        <rotation>0</rotation>
      </LatLonBox>
    </GroundOverlay>

    <GroundOverlay>
      <name>2020_07_13</name>
      <Icon>
        <href>jpgs/2020_07_13.jpg</href>
      </Icon>
      <LatLonBox>
        <north>36.198032</north>
        <south>36.149443</south>
        <east>28.018935</east>
        <west>27.957308</west>
        <rotation>0</rotation>
      </LatLonBox>
    </GroundOverlay>

    <GroundOverlay>
      <name>2020_07_18</name>
      <Icon>
        <href>jpgs/2020_07_18.jpg</href>
      </Icon>
      <LatLonBox>
        <north>36.198032</north>
        <south>36.149443</south>
        <east>28.018935</east>
        <west>27.957308</west>
        <rotation>0</rotation>
      </LatLonBox>
    </GroundOverlay>

    <GroundOverlay>
      <name>2020_07_23</name>
      <Icon>
        <href>jpgs/2020_07_23.jpg</href>
      </Icon>
      <LatLonBox>
        <north>36.198032</north>
        <south>36.149443</south>
        <east>28.018935</east>
        <west>27.957308</west>
        <rotation>0</rotation>
      </LatLonBox>
    </GroundOverlay>

    <GroundOverlay>
      <name>2020_08_12</name>
      <Icon>
        <href>jpgs/2020_08_12.jpg</href>
      </Icon>
      <LatLonBox>
        <north>36.198032</north>
        <south>36.149443</south>
        <east>28.018935</east>
        <west>27.957308</west>
        <rotation>0</rotation>
      </LatLonBox>
    </GroundOverlay>

    <GroundOverlay>
      <name>2020_08_17</name>
      <Icon>
        <href>jpgs/2020_08_17.jpg</href>
      </Icon>
      <LatLonBox>
        <north>36.198032</north>
        <south>36.149443</south>
        <east>28.018935</east>
        <west>27.957308</west>
        <rotation>0</rotation>
      </LatLonBox>
    </GroundOverlay>

    <GroundOverlay>
      <name>2020_09_06</name>
      <Icon>
        <href>jpgs/2020_09_06.jpg</href>
      </Icon>
      <LatLonBox>
        <north>36.198032</north>
        <south>36.149443</south>
        <east>28.018935</east>
        <west>27.957308</west>
        <rotation>0</rotation>
      </LatLonBox>
    </GroundOverlay>

    <GroundOverlay>
      <name>2020_09_11</name>
      <Icon>
        <href>jpgs/2020_09_11.jpg</href>
      </Icon>
      <LatLonBox>
        <north>36.198032</north>
        <south>36.149443</south>
        <east>28.018935</east>
        <west>27.957308</west>
        <rotation>0</rotation>
      </LatLonBox>
    </GroundOverlay>

    <GroundOverlay>
      <name>2020_09_21</name>
      <Icon>
        <href>jpgs/2020_09_21.jpg</href>
      </Icon>
      <LatLonBox>
        <north>36.198032</north>
        <south>36.149443</south>
        <east>28.018935</east>
        <west>27.957308</west>
        <rotation>0</rotation>
      </LatLonBox>
    </GroundOverlay>

    <GroundOverlay>
      <name>2020_10_01</name>
      <Icon>
        <href>jpgs/2020_10_01.jpg</href>
      </Icon>
      <LatLonBox>
        <north>36.198032</north>
        <south>36.149443</south>
        <east>28.018935</east>
        <west>27.957308</west>
        <rotation>0</rotation>
      </LatLonBox>
    </GroundOverlay>

    <GroundOverlay>
      <name>2020_10_06</name>
      <Icon>
        <href>jpgs/2020_10_06.jpg</href>
      </Icon>
      <LatLonBox>
        <north>36.198032</north>
        <south>36.149443</south>
        <east>28.018935</east>
        <west>27.957308</west>
        <rotation>0</rotation>
      </LatLonBox>
    </GroundOverlay>

    <GroundOverlay>
      <name>2020_10_31</name>
      <Icon>
        <href>jpgs/2020_10_31.jpg</href>
      </Icon>
      <LatLonBox>
        <north>36.198032</north>
        <south>36.149443</south>
        <east>28.018935</east>
        <west>27.957308</west>
        <rotation>0</rotation>
      </LatLonBox>
    </GroundOverlay>

    <GroundOverlay>
      <name>2020_11_15</name>
      <Icon>
        <href>jpgs/2020_11_15.jpg</href>
      </Icon>
      <LatLonBox>
        <north>36.198032</north>
        <south>36.149443</south>
        <east>28.018935</east>
        <west>27.957308</west>
        <rotation>0</rotation>
      </LatLonBox>
    </GroundOverlay>

    <GroundOverlay>
      <name>2021_01_19</name>
      <Icon>
        <href>jpgs/2021_01_19.jpg</href>
      </Icon>
      <LatLonBox>
        <north>36.198032</north>
        <south>36.149443</south>
        <east>28.018935</east>
        <west>27.957308</west>
        <rotation>0</rotation>
      </LatLonBox>
    </GroundOverlay>

    <GroundOverlay>
      <name>2021_02_23</name>
      <Icon>
        <href>jpgs/2021_02_23.jpg</href>
      </Icon>
      <LatLonBox>
        <north>36.198032</north>
        <south>36.149443</south>
        <east>28.018935</east>
        <west>27.957308</west>
        <rotation>0</rotation>
      </LatLonBox>
    </GroundOverlay>

    <GroundOverlay>
      <name>2021_05_24</name>
      <Icon>
        <href>jpgs/2021_05_24.jpg</href>
      </Icon>
      <LatLonBox>
        <north>36.198032</north>
        <south>36.149443</south>
        <east>28.018935</east>
        <west>27.957308</west>
        <rotation>0</rotation>
      </LatLonBox>
    </GroundOverlay>

    <GroundOverlay>
      <name>2021_05_29</name>
      <Icon>
        <href>jpgs/2021_05_29.jpg</href>
      </Icon>
      <LatLonBox>
        <north>36.198032</north>
        <south>36.149443</south>
        <east>28.018935</east>
        <west>27.957308</west>
        <rotation>0</rotation>
      </LatLonBox>
    </GroundOverlay>

    <GroundOverlay>
      <name>2021_06_02</name>
      <Icon>
        <href>jpgs/2021_06_02.jpg</href>
      </Icon>
      <LatLonBox>
        <north>36.198032</north>
        <south>36.149443</south>
        <east>28.018935</east>
        <west>27.957308</west>
        <rotation>0</rotation>
      </LatLonBox>
    </GroundOverlay>

    <GroundOverlay>
      <name>2021_06_03</name>
      <Icon>
        <href>jpgs/2021_06_03.jpg</href>
      </Icon>
      <LatLonBox>
        <north>36.198032</north>
        <south>36.149443</south>
        <east>28.018935</east>
        <west>27.957308</west>
        <rotation>0</rotation>
      </LatLonBox>
    </GroundOverlay>

    <GroundOverlay>
      <name>2021_06_17</name>
      <Icon>
        <href>jpgs/2021_06_17.jpg</href>
      </Icon>
      <LatLonBox>
        <north>36.198032</north>
        <south>36.149443</south>
        <east>28.018935</east>
        <west>27.957308</west>
        <rotation>0</rotation>
      </LatLonBox>
    </GroundOverlay>

    <GroundOverlay>
      <name>2021_06_23</name>
      <Icon>
        <href>jpgs/2021_06_23.jpg</href>
      </Icon>
      <LatLonBox>
        <north>36.198032</north>
        <south>36.149443</south>
        <east>28.018935</east>
        <west>27.957308</west>
        <rotation>0</rotation>
      </LatLonBox>
    </GroundOverlay>

    <GroundOverlay>
      <name>2021_06_27</name>
      <Icon>
        <href>jpgs/2021_06_27.jpg</href>
      </Icon>
      <LatLonBox>
        <north>36.198032</north>
        <south>36.149443</south>
        <east>28.018935</east>
        <west>27.957308</west>
        <rotation>0</rotation>
      </LatLonBox>
    </GroundOverlay>

    <GroundOverlay>
      <name>2021_06_28</name>
      <Icon>
        <href>jpgs/2021_06_28.jpg</href>
      </Icon>
      <LatLonBox>
        <north>36.198032</north>
        <south>36.149443</south>
        <east>28.018935</east>
        <west>27.957308</west>
        <rotation>0</rotation>
      </LatLonBox>
    </GroundOverlay>

    <GroundOverlay>
      <name>2021_07_03</name>
      <Icon>
        <href>jpgs/2021_07_03.jpg</href>
      </Icon>
      <LatLonBox>
        <north>36.198032</north>
        <south>36.149443</south>
        <east>28.018935</east>
        <west>27.957308</west>
        <rotation>0</rotation>
      </LatLonBox>
    </GroundOverlay>

    <GroundOverlay>
      <name>2021_07_28</name>
      <Icon>
        <href>jpgs/2021_07_28.jpg</href>
      </Icon>
      <LatLonBox>
        <north>36.198032</north>
        <south>36.149443</south>
        <east>28.018935</east>
        <west>27.957308</west>
        <rotation>0</rotation>
      </LatLonBox>
    </GroundOverlay>

    <GroundOverlay>
      <name>2021_08_01</name>
      <Icon>
        <href>jpgs/2021_08_01.jpg</href>
      </Icon>
      <LatLonBox>
        <north>36.198032</north>
        <south>36.149443</south>
        <east>28.018935</east>
        <west>27.957308</west>
        <rotation>0</rotation>
      </LatLonBox>
    </GroundOverlay>

    <GroundOverlay>
      <name>2021_08_06</name>
      <Icon>
        <href>jpgs/2021_08_06.jpg</href>
      </Icon>
      <LatLonBox>
        <north>36.198032</north>
        <south>36.149443</south>
        <east>28.018935</east>
        <west>27.957308</west>
        <rotation>0</rotation>
      </LatLonBox>
    </GroundOverlay>

    <GroundOverlay>
      <name>2021_08_12</name>
      <Icon>
        <href>jpgs/2021_08_12.jpg</href>
      </Icon>
      <LatLonBox>
        <north>36.198032</north>
        <south>36.149443</south>
        <east>28.018935</east>
        <west>27.957308</west>
        <rotation>0</rotation>
      </LatLonBox>
    </GroundOverlay>

    <GroundOverlay>
      <name>2021_09_11</name>
      <Icon>
        <href>jpgs/2021_09_11.jpg</href>
      </Icon>
      <LatLonBox>
        <north>36.198032</north>
        <south>36.149443</south>
        <east>28.018935</east>
        <west>27.957308</west>
        <rotation>0</rotation>
      </LatLonBox>
    </GroundOverlay>

    <GroundOverlay>
      <name>2021_10_06</name>
      <Icon>
        <href>jpgs/2021_10_06.jpg</href>
      </Icon>
      <LatLonBox>
        <north>36.198032</north>
        <south>36.149443</south>
        <east>28.018935</east>
        <west>27.957308</west>
        <rotation>0</rotation>
      </LatLonBox>
    </GroundOverlay>

    <GroundOverlay>
      <name>2021_10_21</name>
      <Icon>
        <href>jpgs/2021_10_21.jpg</href>
      </Icon>
      <LatLonBox>
        <north>36.198032</north>
        <south>36.149443</south>
        <east>28.018935</east>
        <west>27.957308</west>
        <rotation>0</rotation>
      </LatLonBox>
    </GroundOverlay>

    <GroundOverlay>
      <name>2021_11_20</name>
      <Icon>
        <href>jpgs/2021_11_20.jpg</href>
      </Icon>
      <LatLonBox>
        <north>36.198032</north>
        <south>36.149443</south>
        <east>28.018935</east>
        <west>27.957308</west>
        <rotation>0</rotation>
      </LatLonBox>
    </GroundOverlay>

    <GroundOverlay>
      <name>2022_01_14</name>
      <Icon>
        <href>jpgs/2022_01_14.jpg</href>
      </Icon>
      <LatLonBox>
        <north>36.198032</north>
        <south>36.149443</south>
        <east>28.018935</east>
        <west>27.957308</west>
        <rotation>0</rotation>
      </LatLonBox>
    </GroundOverlay>

    <GroundOverlay>
      <name>2022_03_06</name>
      <Icon>
        <href>jpgs/2022_03_06.jpg</href>
      </Icon>
      <LatLonBox>
        <north>36.198032</north>
        <south>36.149443</south>
        <east>28.018935</east>
        <west>27.957308</west>
        <rotation>0</rotation>
      </LatLonBox>
    </GroundOverlay>

    <GroundOverlay>
      <name>2022_03_15</name>
      <Icon>
        <href>jpgs/2022_03_15.jpg</href>
      </Icon>
      <LatLonBox>
        <north>36.198032</north>
        <south>36.149443</south>
        <east>28.018935</east>
        <west>27.957308</west>
        <rotation>0</rotation>
      </LatLonBox>
    </GroundOverlay>

    <GroundOverlay>
      <name>2022_03_25</name>
      <Icon>
        <href>jpgs/2022_03_25.jpg</href>
      </Icon>
      <LatLonBox>
        <north>36.198032</north>
        <south>36.149443</south>
        <east>28.018935</east>
        <west>27.957308</west>
        <rotation>0</rotation>
      </LatLonBox>
    </GroundOverlay>

    <GroundOverlay>
      <name>2022_04_24</name>
      <Icon>
        <href>jpgs/2022_04_24.jpg</href>
      </Icon>
      <LatLonBox>
        <north>36.198032</north>
        <south>36.149443</south>
        <east>28.018935</east>
        <west>27.957308</west>
        <rotation>0</rotation>
      </LatLonBox>
    </GroundOverlay>

    <GroundOverlay>
      <name>2022_05_04</name>
      <Icon>
        <href>jpgs/2022_05_04.jpg</href>
      </Icon>
      <LatLonBox>
        <north>36.198032</north>
        <south>36.149443</south>
        <east>28.018935</east>
        <west>27.957308</west>
        <rotation>0</rotation>
      </LatLonBox>
    </GroundOverlay>

    <GroundOverlay>
      <name>2022_06_03</name>
      <Icon>
        <href>jpgs/2022_06_03.jpg</href>
      </Icon>
      <LatLonBox>
        <north>36.198032</north>
        <south>36.149443</south>
        <east>28.018935</east>
        <west>27.957308</west>
        <rotation>0</rotation>
      </LatLonBox>
    </GroundOverlay>

    <GroundOverlay>
      <name>2022_06_17</name>
      <Icon>
        <href>jpgs/2022_06_17.jpg</href>
      </Icon>
      <LatLonBox>
        <north>36.198032</north>
        <south>36.149443</south>
        <east>28.018935</east>
        <west>27.957308</west>
        <rotation>0</rotation>
      </LatLonBox>
    </GroundOverlay>

    <GroundOverlay>
      <name>2022_06_18</name>
      <Icon>
        <href>jpgs/2022_06_18.jpg</href>
      </Icon>
      <LatLonBox>
        <north>36.198032</north>
        <south>36.149443</south>
        <east>28.018935</east>
        <west>27.957308</west>
        <rotation>0</rotation>
      </LatLonBox>
    </GroundOverlay>

    <GroundOverlay>
      <name>2022_06_23</name>
      <Icon>
        <href>jpgs/2022_06_23.jpg</href>
      </Icon>
      <LatLonBox>
        <north>36.198032</north>
        <south>36.149443</south>
        <east>28.018935</east>
        <west>27.957308</west>
        <rotation>0</rotation>
      </LatLonBox>
    </GroundOverlay>

    <GroundOverlay>
      <name>2022_06_28</name>
      <Icon>
        <href>jpgs/2022_06_28.jpg</href>
      </Icon>
      <LatLonBox>
        <north>36.198032</north>
        <south>36.149443</south>
        <east>28.018935</east>
        <west>27.957308</west>
        <rotation>0</rotation>
      </LatLonBox>
    </GroundOverlay>

    <GroundOverlay>
      <name>2022_07_03</name>
      <Icon>
        <href>jpgs/2022_07_03.jpg</href>
      </Icon>
      <LatLonBox>
        <north>36.198032</north>
        <south>36.149443</south>
        <east>28.018935</east>
        <west>27.957308</west>
        <rotation>0</rotation>
      </LatLonBox>
    </GroundOverlay>

    <GroundOverlay>
      <name>2022_07_08</name>
      <Icon>
        <href>jpgs/2022_07_08.jpg</href>
      </Icon>
      <LatLonBox>
        <north>36.198032</north>
        <south>36.149443</south>
        <east>28.018935</east>
        <west>27.957308</west>
        <rotation>0</rotation>
      </LatLonBox>
    </GroundOverlay>

    <GroundOverlay>
      <name>2022_07_13</name>
      <Icon>
        <href>jpgs/2022_07_13.jpg</href>
      </Icon>
      <LatLonBox>
        <north>36.198032</north>
        <south>36.149443</south>
        <east>28.018935</east>
        <west>27.957308</west>
        <rotation>0</rotation>
      </LatLonBox>
    </GroundOverlay>

    <GroundOverlay>
      <name>2022_07_18</name>
      <Icon>
        <href>jpgs/2022_07_18.jpg</href>
      </Icon>
      <LatLonBox>
        <north>36.198032</north>
        <south>36.149443</south>
        <east>28.018935</east>
        <west>27.957308</west>
        <rotation>0</rotation>
      </LatLonBox>
    </GroundOverlay>

    <GroundOverlay>
      <name>2022_07_23</name>
      <Icon>
        <href>jpgs/2022_07_23.jpg</href>
      </Icon>
      <LatLonBox>
        <north>36.198032</north>
        <south>36.149443</south>
        <east>28.018935</east>
        <west>27.957308</west>
        <rotation>0</rotation>
      </LatLonBox>
    </GroundOverlay>

    <GroundOverlay>
      <name>2022_07_28</name>
      <Icon>
        <href>jpgs/2022_07_28.jpg</href>
      </Icon>
      <LatLonBox>
        <north>36.198032</north>
        <south>36.149443</south>
        <east>28.018935</east>
        <west>27.957308</west>
        <rotation>0</rotation>
      </LatLonBox>
    </GroundOverlay>

    <GroundOverlay>
      <name>2022_08_02</name>
      <Icon>
        <href>jpgs/2022_08_02.jpg</href>
      </Icon>
      <LatLonBox>
        <north>36.198032</north>
        <south>36.149443</south>
        <east>28.018935</east>
        <west>27.957308</west>
        <rotation>0</rotation>
      </LatLonBox>
    </GroundOverlay>

    <GroundOverlay>
      <name>2022_08_12</name>
      <Icon>
        <href>jpgs/2022_08_12.jpg</href>
      </Icon>
      <LatLonBox>
        <north>36.198032</north>
        <south>36.149443</south>
        <east>28.018935</east>
        <west>27.957308</west>
        <rotation>0</rotation>
      </LatLonBox>
    </GroundOverlay>

    <GroundOverlay>
      <name>2022_09_11</name>
      <Icon>
        <href>jpgs/2022_09_11.jpg</href>
      </Icon>
      <LatLonBox>
        <north>36.198032</north>
        <south>36.149443</south>
        <east>28.018935</east>
        <west>27.957308</west>
        <rotation>0</rotation>
      </LatLonBox>
    </GroundOverlay>

    <GroundOverlay>
      <name>2022_09_26</name>
      <Icon>
        <href>jpgs/2022_09_26.jpg</href>
      </Icon>
      <LatLonBox>
        <north>36.198032</north>
        <south>36.149443</south>
        <east>28.018935</east>
        <west>27.957308</west>
        <rotation>0</rotation>
      </LatLonBox>
    </GroundOverlay>

    <GroundOverlay>
      <name>2022_10_01</name>
      <Icon>
        <href>jpgs/2022_10_01.jpg</href>
      </Icon>
      <LatLonBox>
        <north>36.198032</north>
        <south>36.149443</south>
        <east>28.018935</east>
        <west>27.957308</west>
        <rotation>0</rotation>
      </LatLonBox>
    </GroundOverlay>

    <GroundOverlay>
      <name>2022_10_21</name>
      <Icon>
        <href>jpgs/2022_10_21.jpg</href>
      </Icon>
      <LatLonBox>
        <north>36.198032</north>
        <south>36.149443</south>
        <east>28.018935</east>
        <west>27.957308</west>
        <rotation>0</rotation>
      </LatLonBox>
    </GroundOverlay>

    <GroundOverlay>
      <name>2022_10_26</name>
      <Icon>
        <href>jpgs/2022_10_26.jpg</href>
      </Icon>
      <LatLonBox>
        <north>36.198032</north>
        <south>36.149443</south>
        <east>28.018935</east>
        <west>27.957308</west>
        <rotation>0</rotation>
      </LatLonBox>
    </GroundOverlay>

    <GroundOverlay>
      <name>2022_10_31</name>
      <Icon>
        <href>jpgs/2022_10_31.jpg</href>
      </Icon>
      <LatLonBox>
        <north>36.198032</north>
        <south>36.149443</south>
        <east>28.018935</east>
        <west>27.957308</west>
        <rotation>0</rotation>
      </LatLonBox>
    </GroundOverlay>

    <GroundOverlay>
      <name>2022_11_10</name>
      <Icon>
        <href>jpgs/2022_11_10.jpg</href>
      </Icon>
      <LatLonBox>
        <north>36.198032</north>
        <south>36.149443</south>
        <east>28.018935</east>
        <west>27.957308</west>
        <rotation>0</rotation>
      </LatLonBox>
    </GroundOverlay>

    <GroundOverlay>
      <name>2023_01_09</name>
      <Icon>
        <href>jpgs/2023_01_09.jpg</href>
      </Icon>
      <LatLonBox>
        <north>36.198032</north>
        <south>36.149443</south>
        <east>28.018935</east>
        <west>27.957308</west>
        <rotation>0</rotation>
      </LatLonBox>
    </GroundOverlay>

    <GroundOverlay>
      <name>2023_03_15</name>
      <Icon>
        <href>jpgs/2023_03_15.jpg</href>
      </Icon>
      <LatLonBox>
        <north>36.198032</north>
        <south>36.149443</south>
        <east>28.018935</east>
        <west>27.957308</west>
        <rotation>0</rotation>
      </LatLonBox>
    </GroundOverlay>

    <GroundOverlay>
      <name>2023_03_20</name>
      <Icon>
        <href>jpgs/2023_03_20.jpg</href>
      </Icon>
      <LatLonBox>
        <north>36.198032</north>
        <south>36.149443</south>
        <east>28.018935</east>
        <west>27.957308</west>
        <rotation>0</rotation>
      </LatLonBox>
    </GroundOverlay>

    <GroundOverlay>
      <name>2023_03_25</name>
      <Icon>
        <href>jpgs/2023_03_25.jpg</href>
      </Icon>
      <LatLonBox>
        <north>36.198032</north>
        <south>36.149443</south>
        <east>28.018935</east>
        <west>27.957308</west>
        <rotation>0</rotation>
      </LatLonBox>
    </GroundOverlay>

    <GroundOverlay>
      <name>2023_04_24</name>
      <Icon>
        <href>jpgs/2023_04_24.jpg</href>
      </Icon>
      <LatLonBox>
        <north>36.198032</north>
        <south>36.149443</south>
        <east>28.018935</east>
        <west>27.957308</west>
        <rotation>0</rotation>
      </LatLonBox>
    </GroundOverlay>

    <GroundOverlay>
      <name>2023_04_29</name>
      <Icon>
        <href>jpgs/2023_04_29.jpg</href>
      </Icon>
      <LatLonBox>
        <north>36.198032</north>
        <south>36.149443</south>
        <east>28.018935</east>
        <west>27.957308</west>
        <rotation>0</rotation>
      </LatLonBox>
    </GroundOverlay>

    <GroundOverlay>
      <name>2023_06_28</name>
      <Icon>
        <href>jpgs/2023_06_28.jpg</href>
      </Icon>
      <LatLonBox>
        <north>36.198032</north>
        <south>36.149443</south>
        <east>28.018935</east>
        <west>27.957308</west>
        <rotation>0</rotation>
      </LatLonBox>
    </GroundOverlay>

    <GroundOverlay>
      <name>2023_07_03</name>
      <Icon>
        <href>jpgs/2023_07_03.jpg</href>
      </Icon>
      <LatLonBox>
        <north>36.198032</north>
        <south>36.149443</south>
        <east>28.018935</east>
        <west>27.957308</west>
        <rotation>0</rotation>
      </LatLonBox>
    </GroundOverlay>

    <GroundOverlay>
      <name>2023_07_08</name>
      <Icon>
        <href>jpgs/2023_07_08.jpg</href>
      </Icon>
      <LatLonBox>
        <north>36.198032</north>
        <south>36.149443</south>
        <east>28.018935</east>
        <west>27.957308</west>
        <rotation>0</rotation>
      </LatLonBox>
    </GroundOverlay>

    <GroundOverlay>
      <name>2023_07_18</name>
      <Icon>
        <href>jpgs/2023_07_18.jpg</href>
      </Icon>
      <LatLonBox>
        <north>36.198032</north>
        <south>36.149443</south>
        <east>28.018935</east>
        <west>27.957308</west>
        <rotation>0</rotation>
      </LatLonBox>
    </GroundOverlay>

    <GroundOverlay>
      <name>2023_07_23</name>
      <Icon>
        <href>jpgs/2023_07_23.jpg</href>
      </Icon>
      <LatLonBox>
        <north>36.198032</north>
        <south>36.149443</south>
        <east>28.018935</east>
        <west>27.957308</west>
        <rotation>0</rotation>
      </LatLonBox>
    </GroundOverlay>

    <GroundOverlay>
      <name>2023_07_28</name>
      <Icon>
        <href>jpgs/2023_07_28.jpg</href>
      </Icon>
      <LatLonBox>
        <north>36.198032</north>
        <south>36.149443</south>
        <east>28.018935</east>
        <west>27.957308</west>
        <rotation>0</rotation>
      </LatLonBox>
    </GroundOverlay>

    <GroundOverlay>
      <name>2023_08_07</name>
      <Icon>
        <href>jpgs/2023_08_07.jpg</href>
      </Icon>
      <LatLonBox>
        <north>36.198032</north>
        <south>36.149443</south>
        <east>28.018935</east>
        <west>27.957308</west>
        <rotation>0</rotation>
      </LatLonBox>
    </GroundOverlay>

    <GroundOverlay>
      <name>2023_08_12</name>
      <Icon>
        <href>jpgs/2023_08_12.jpg</href>
      </Icon>
      <LatLonBox>
        <north>36.198032</north>
        <south>36.149443</south>
        <east>28.018935</east>
        <west>27.957308</west>
        <rotation>0</rotation>
      </LatLonBox>
    </GroundOverlay>

    <GroundOverlay>
      <name>2023_08_17</name>
      <Icon>
        <href>jpgs/2023_08_17.jpg</href>
      </Icon>
      <LatLonBox>
        <north>36.198032</north>
        <south>36.149443</south>
        <east>28.018935</east>
        <west>27.957308</west>
        <rotation>0</rotation>
      </LatLonBox>
    </GroundOverlay>

    <GroundOverlay>
      <name>2023_08_27</name>
      <Icon>
        <href>jpgs/2023_08_27.jpg</href>
      </Icon>
      <LatLonBox>
        <north>36.198032</north>
        <south>36.149443</south>
        <east>28.018935</east>
        <west>27.957308</west>
        <rotation>0</rotation>
      </LatLonBox>
    </GroundOverlay>

    <GroundOverlay>
      <name>2023_09_01</name>
      <Icon>
        <href>jpgs/2023_09_01.jpg</href>
      </Icon>
      <LatLonBox>
        <north>36.198032</north>
        <south>36.149443</south>
        <east>28.018935</east>
        <west>27.957308</west>
        <rotation>0</rotation>
      </LatLonBox>
    </GroundOverlay>

    <GroundOverlay>
      <name>2023_10_11</name>
      <Icon>
        <href>jpgs/2023_10_11.jpg</href>
      </Icon>
      <LatLonBox>
        <north>36.198032</north>
        <south>36.149443</south>
        <east>28.018935</east>
        <west>27.957308</west>
        <rotation>0</rotation>
      </LatLonBox>
    </GroundOverlay>

    <GroundOverlay>
      <name>2023_10_16</name>
      <Icon>
        <href>jpgs/2023_10_16.jpg</href>
      </Icon>
      <LatLonBox>
        <north>36.198032</north>
        <south>36.149443</south>
        <east>28.018935</east>
        <west>27.957308</west>
        <rotation>0</rotation>
      </LatLonBox>
    </GroundOverlay>

    <GroundOverlay>
      <name>2023_10_21</name>
      <Icon>
        <href>jpgs/2023_10_21.jpg</href>
      </Icon>
      <LatLonBox>
        <north>36.198032</north>
        <south>36.149443</south>
        <east>28.018935</east>
        <west>27.957308</west>
        <rotation>0</rotation>
      </LatLonBox>
    </GroundOverlay>

    <GroundOverlay>
      <name>2023_11_20</name>
      <Icon>
        <href>jpgs/2023_11_20.jpg</href>
      </Icon>
      <LatLonBox>
        <north>36.198032</north>
        <south>36.149443</south>
        <east>28.018935</east>
        <west>27.957308</west>
        <rotation>0</rotation>
      </LatLonBox>
    </GroundOverlay>

    <GroundOverlay>
      <name>2023_12_25</name>
      <Icon>
        <href>jpgs/2023_12_25.jpg</href>
      </Icon>
      <LatLonBox>
        <north>36.198032</north>
        <south>36.149443</south>
        <east>28.018935</east>
        <west>27.957308</west>
        <rotation>0</rotation>
      </LatLonBox>
    </GroundOverlay>

    <GroundOverlay>
      <name>2024_01_24</name>
      <Icon>
        <href>jpgs/2024_01_24.jpg</href>
      </Icon>
      <LatLonBox>
        <north>36.198032</north>
        <south>36.149443</south>
        <east>28.018935</east>
        <west>27.957308</west>
        <rotation>0</rotation>
      </LatLonBox>
    </GroundOverlay>

    <GroundOverlay>
      <name>2024_02_03</name>
      <Icon>
        <href>jpgs/2024_02_03.jpg</href>
      </Icon>
      <LatLonBox>
        <north>36.198032</north>
        <south>36.149443</south>
        <east>28.018935</east>
        <west>27.957308</west>
        <rotation>0</rotation>
      </LatLonBox>
    </GroundOverlay>

    <GroundOverlay>
      <name>2024_02_18</name>
      <Icon>
        <href>jpgs/2024_02_18.jpg</href>
      </Icon>
      <LatLonBox>
        <north>36.198032</north>
        <south>36.149443</south>
        <east>28.018935</east>
        <west>27.957308</west>
        <rotation>0</rotation>
      </LatLonBox>
    </GroundOverlay>

    <GroundOverlay>
      <name>2024_02_23</name>
      <Icon>
        <href>jpgs/2024_02_23.jpg</href>
      </Icon>
      <LatLonBox>
        <north>36.198032</north>
        <south>36.149443</south>
        <east>28.018935</east>
        <west>27.957308</west>
        <rotation>0</rotation>
      </LatLonBox>
    </GroundOverlay>

    <GroundOverlay>
      <name>2024_03_05</name>
      <Icon>
        <href>jpgs/2024_03_05.jpg</href>
      </Icon>
      <LatLonBox>
        <north>36.198032</north>
        <south>36.149443</south>
        <east>28.018935</east>
        <west>27.957308</west>
        <rotation>0</rotation>
      </LatLonBox>
    </GroundOverlay>

    <GroundOverlay>
      <name>2024_04_13</name>
      <Icon>
        <href>jpgs/2024_04_13.jpg</href>
      </Icon>
      <LatLonBox>
        <north>36.198032</north>
        <south>36.149443</south>
        <east>28.018935</east>
        <west>27.957308</west>
        <rotation>0</rotation>
      </LatLonBox>
    </GroundOverlay>

    <GroundOverlay>
      <name>2024_04_28</name>
      <Icon>
        <href>jpgs/2024_04_28.jpg</href>
      </Icon>
      <LatLonBox>
        <north>36.198032</north>
        <south>36.149443</south>
        <east>28.018935</east>
        <west>27.957308</west>
        <rotation>0</rotation>
      </LatLonBox>
    </GroundOverlay>

    <GroundOverlay>
      <name>2024_05_03</name>
      <Icon>
        <href>jpgs/2024_05_03.jpg</href>
      </Icon>
      <LatLonBox>
        <north>36.198032</north>
        <south>36.149443</south>
        <east>28.018935</east>
        <west>27.957308</west>
        <rotation>0</rotation>
      </LatLonBox>
    </GroundOverlay>

    <GroundOverlay>
      <name>2024_05_13</name>
      <Icon>
        <href>jpgs/2024_05_13.jpg</href>
      </Icon>
      <LatLonBox>
        <north>36.198032</north>
        <south>36.149443</south>
        <east>28.018935</east>
        <west>27.957308</west>
        <rotation>0</rotation>
      </LatLonBox>
    </GroundOverlay>

    <GroundOverlay>
      <name>2024_07_23</name>
      <Icon>
        <href>jpgs/2024_07_23.jpg</href>
      </Icon>
      <LatLonBox>
        <north>36.198032</north>
        <south>36.149443</south>
        <east>28.018935</east>
        <west>27.957308</west>
        <rotation>0</rotation>
      </LatLonBox>
    </GroundOverlay>

    <GroundOverlay>
      <name>2024_08_22</name>
      <Icon>
        <href>jpgs/2024_08_22.jpg</href>
      </Icon>
      <LatLonBox>
        <north>36.198032</north>
        <south>36.149443</south>
        <east>28.018935</east>
        <west>27.957308</west>
        <rotation>0</rotation>
      </LatLonBox>
    </GroundOverlay>

  </Document>
</kml>
